{
"type": "FeatureCollection",
"name": "aoi_sathupalle_wgs84",
"crs": { "type": "name", "properties": { "name": "urn:ogc:def:crs:OGC:1.3:CRS84" } },
"features": [
{ "type": "Feature", "properties": { "Block_LG00": "5086", "State": "TS", "District": "KMM", "Block": "Sathupalle" }, "geometry": { "type": "Polygon", "coordinates": [ [ [ 80.867378494070834, 17.336275013552669 ], [ 80.870510000215546, 17.335840000523671 ], [ 80.872640000327721, 17.335110000281663 ], [ 80.873989999929577, 17.33480999929759 ], [ 80.874840000085769, 17.334270001004057 ], [ 80.875399999579884, 17.333269998754833 ], [ 80.876220000568338, 17.33186000173307 ], [ 80.8766799993153, 17.329320000973649 ], [ 80.872670000473235, 17.328640001473229 ], [ 80.871909999744389, 17.327410001564498 ], [ 80.872800000234434, 17.316170000265465 ], [ 80.874659999763381, 17.310050000512884 ], [ 80.877659999895727, 17.300100001005628 ], [ 80.875259999452553, 17.293160001063487 ], [ 80.872560000235367, 17.282550000214314 ], [ 80.871560309224634, 17.276634568413193 ], [ 80.871229999717102, 17.274680000847685 ], [ 80.871800001031616, 17.265470000750362 ], [ 80.870893157480467, 17.259015849860365 ], [ 80.870350000263926, 17.255149999874735 ], [ 80.871359999277203, 17.253330000697375 ], [ 80.87421999987788, 17.248150000524785 ], [ 80.874429999777917, 17.246520001802086 ], [ 80.874229999748593, 17.245160000798119 ], [ 80.871869999661257, 17.242289999735039 ], [ 80.865289375104823, 17.238520244921983 ], [ 80.864870000184354, 17.238280000838916 ], [ 80.864249999825844, 17.237620000279861 ], [ 80.861939999811611, 17.235130000206841 ], [ 80.860140000062472, 17.232260000238615 ], [ 80.859010000654408, 17.228720000632354 ], [ 80.858409999321907, 17.22492000013494 ], [ 80.858230000546897, 17.220720001178265 ], [ 80.858429999353234, 17.21895999924212 ], [ 80.859069999577031, 17.217739999177638 ], [ 80.860500000361398, 17.216169999604546 ], [ 80.864720000472147, 17.213340000269707 ], [ 80.87156999945573, 17.210709999386349 ], [ 80.881719999878172, 17.206900000710583 ], [ 80.888849999422533, 17.204999999406002 ], [ 80.891489999832373, 17.20430000045441 ], [ 80.898580000023188, 17.203840000427888 ], [ 80.912100000124013, 17.200750000394002 ], [ 80.913500000415141, 17.200900000029588 ], [ 80.913490000411457, 17.203879999936156 ], [ 80.917256179420107, 17.206625628280847 ], [ 80.917884745449669, 17.206576342004258 ], [ 80.918020261125434, 17.206142024577343 ], [ 80.918333149292764, 17.205042569470702 ], [ 80.918501236283618, 17.204440828784026 ], [ 80.918819071077692, 17.203468111468229 ], [ 80.918872573068683, 17.203192144808973 ], [ 80.919250786714727, 17.202935925382636 ], [ 80.919612277900882, 17.2025802742194 ], [ 80.919832958918832, 17.202376342142525 ], [ 80.920251805573145, 17.202177641027991 ], [ 80.920664512557934, 17.201850154009499 ], [ 80.920804974586233, 17.201528839883633 ], [ 80.920935686837069, 17.201256329338971 ], [ 80.920950823436229, 17.200801330063285 ], [ 80.921030423806357, 17.20046238190908 ], [ 80.921006252934973, 17.199936770301413 ], [ 80.920991289553356, 17.199556987232178 ], [ 80.920997485458827, 17.199152223635874 ], [ 80.92098481442244, 17.198731744915627 ], [ 80.920946331004231, 17.198345200692586 ], [ 80.920868208881927, 17.198094410969905 ], [ 80.920778045852757, 17.197739586989396 ], [ 80.920595782135493, 17.197199635900542 ], [ 80.920399882155465, 17.196894808492555 ], [ 80.920223896076763, 17.196378425128007 ], [ 80.920484737973069, 17.195888556767891 ], [ 80.92065338338557, 17.195595155107156 ], [ 80.920678749744098, 17.195293571879184 ], [ 80.920621479043916, 17.194909253088273 ], [ 80.920439690799853, 17.194606717063191 ], [ 80.920201439397374, 17.194304170298839 ], [ 80.919661998390495, 17.193912997536032 ], [ 80.919014815172417, 17.193759392783221 ], [ 80.91899535891325, 17.19347457005772 ], [ 80.918989232363487, 17.19278277612759 ], [ 80.918964193901573, 17.192068314262581 ], [ 80.918934629502843, 17.191444397076236 ], [ 80.91886736079114, 17.190806991861706 ], [ 80.918789371517803, 17.190083665109952 ], [ 80.918460984737266, 17.189730472801028 ], [ 80.918937690018197, 17.189703518002943 ], [ 80.919248173728278, 17.189716487860132 ], [ 80.919520987387898, 17.189720449958031 ], [ 80.920160691154237, 17.18970114914352 ], [ 80.920621628176562, 17.189632358425527 ], [ 80.920928669382334, 17.18952972857798 ], [ 80.921378276658217, 17.189337023206729 ], [ 80.921885691820663, 17.189033004591131 ], [ 80.922670356913414, 17.188588404449586 ], [ 80.922911962826262, 17.188316577153461 ], [ 80.923007116333878, 17.187979626489259 ], [ 80.923077595994428, 17.187683270713912 ], [ 80.92318982025914, 17.187343850734994 ], [ 80.923423998919702, 17.186891274215039 ], [ 80.92389992269807, 17.186153327010249 ], [ 80.924193941151486, 17.185785181270955 ], [ 80.924507567741756, 17.1854647902165 ], [ 80.92490682997807, 17.185192654935733 ], [ 80.925489207062796, 17.184757462388887 ], [ 80.92609311936971, 17.184330048119236 ], [ 80.926329556062029, 17.183996111983102 ], [ 80.926410530508988, 17.183639320658187 ], [ 80.926452830448525, 17.183104854064915 ], [ 80.926405153528691, 17.182788397516109 ], [ 80.926219162578235, 17.182253559786947 ], [ 80.926294855936177, 17.181619875306758 ], [ 80.926416071794961, 17.181323330786476 ], [ 80.926309084767723, 17.180785399883185 ], [ 80.926197012525975, 17.18011644325367 ], [ 80.926251914651971, 17.179401860674581 ], [ 80.926231568756037, 17.178682902356417 ], [ 80.926168550997701, 17.177814898365884 ], [ 80.92609648394108, 17.177141253219066 ], [ 80.925906828643249, 17.176445243827605 ], [ 80.925731327943836, 17.175744750192735 ], [ 80.92554154165633, 17.175001289941793 ], [ 80.925361383652898, 17.174370887563793 ], [ 80.925228276850959, 17.173729069506116 ], [ 80.925097112032987, 17.172883696201946 ], [ 80.924980452603435, 17.172210202039988 ], [ 80.924894930393748, 17.171844109778799 ], [ 80.924814111199638, 17.17145538547657 ], [ 80.924755990671599, 17.170682222687045 ], [ 80.92473177845909, 17.170329564335372 ], [ 80.924674652322423, 17.170008690406622 ], [ 80.924632428440432, 17.169492811132269 ], [ 80.924724392251377, 17.169095189389118 ], [ 80.924902123534224, 17.168619994559002 ], [ 80.925140772343127, 17.168045297115299 ], [ 80.925183517638345, 17.167761519636571 ], [ 80.924981366582088, 17.167445097141865 ], [ 80.924698495802176, 17.167160804156953 ], [ 80.924232044958956, 17.166759248183652 ], [ 80.923845353829506, 17.166298893312987 ], [ 80.923625880885609, 17.165961302775621 ], [ 80.923584255682329, 17.16518706916894 ], [ 80.923568646740208, 17.164517823012247 ], [ 80.923553132808465, 17.163848667718213 ], [ 80.923530452869798, 17.163154667455242 ], [ 80.923531711269248, 17.162641440923032 ], [ 80.923455677098715, 17.162261765382194 ], [ 80.923195609749854, 17.161620240698742 ], [ 80.923122514888959, 17.161215446765102 ], [ 80.923212704979591, 17.16084701354081 ], [ 80.923493287808782, 17.160086770568434 ], [ 80.92360560477708, 17.159806209978413 ], [ 80.923764356605076, 17.159285862709851 ], [ 80.92393726191564, 17.158747488979785 ], [ 80.924013112309567, 17.158339685856863 ], [ 80.923968612887023, 17.157812376724962 ], [ 80.923589386794959, 17.157516968866734 ], [ 80.923259908518318, 17.157431740250605 ], [ 80.922516549147929, 17.157329165961123 ], [ 80.922172679373219, 17.157094758211521 ], [ 80.921390518499138, 17.15644514604719 ], [ 80.920914698736496, 17.156075296804723 ], [ 80.920062294983268, 17.155593139714853 ], [ 80.919600798641042, 17.155327251718568 ], [ 80.918734198261618, 17.154799876047527 ], [ 80.917773618362162, 17.154281779035202 ], [ 80.916992004557628, 17.153889948620471 ], [ 80.916591808491432, 17.153691756665992 ], [ 80.915777862497137, 17.153571196523796 ], [ 80.915279342369985, 17.153599297490231 ], [ 80.913825771380559, 17.153516218115836 ], [ 80.912617186826338, 17.153568325161924 ], [ 80.911403697570009, 17.153570665309068 ], [ 80.910007083615454, 17.153718091129093 ], [ 80.908586752872836, 17.153793169950628 ], [ 80.907025322364206, 17.153850438874244 ], [ 80.90596274618774, 17.154028795371982 ], [ 80.905393879377939, 17.154142956179822 ], [ 80.90473112189531, 17.154352233493725 ], [ 80.904284677033104, 17.154538483859568 ], [ 80.903086361694292, 17.155047211257127 ], [ 80.901079674684553, 17.155887531658038 ], [ 80.899471389797043, 17.156544489022913 ], [ 80.899166909617165, 17.156668861461505 ], [ 80.897117828903419, 17.15746857331024 ], [ 80.895609301285432, 17.158104429801153 ], [ 80.895092341203821, 17.158326959341874 ], [ 80.892892889494576, 17.159226372787682 ], [ 80.89240397195158, 17.15937193888692 ], [ 80.891900889732, 17.159476861479888 ], [ 80.891562382414776, 17.15953630658473 ], [ 80.890988339184034, 17.159433364617374 ], [ 80.890099227640306, 17.159349084053769 ], [ 80.888100081830913, 17.159271350516182 ], [ 80.887502623486924, 17.159240744672495 ], [ 80.886746112735509, 17.159649105506475 ], [ 80.88621518013197, 17.159921383452268 ], [ 80.885792186740773, 17.160075862451269 ], [ 80.885359505985349, 17.160117376675966 ], [ 80.884315074705356, 17.159981376047952 ], [ 80.883783850756274, 17.160151877485507 ], [ 80.881575108179419, 17.161146175544228 ], [ 80.880026839750201, 17.160723886101977 ], [ 80.879438053952668, 17.160830095172226 ], [ 80.87929399176744, 17.15923154874233 ], [ 80.879179143644151, 17.15831198187124 ], [ 80.878878918438545, 17.156246117710662 ], [ 80.878570936097347, 17.155066522669863 ], [ 80.878513612271291, 17.154623484571854 ], [ 80.878403755511755, 17.153741952699868 ], [ 80.878255695738957, 17.152562046521318 ], [ 80.877971445869477, 17.151531572680767 ], [ 80.87791423647711, 17.151120199867709 ], [ 80.877700066146332, 17.149813857054347 ], [ 80.877641255345111, 17.148538798064557 ], [ 80.877681780590876, 17.147625354832371 ], [ 80.877843189799862, 17.145933973647274 ], [ 80.877883794205943, 17.145047619880785 ], [ 80.877868559488533, 17.144459838671153 ], [ 80.877786151662235, 17.143171299203505 ], [ 80.87781720103267, 17.142235226640285 ], [ 80.87777552442617, 17.14012367354367 ], [ 80.877809033574337, 17.139855768361461 ], [ 80.877969537835256, 17.138596386962014 ], [ 80.878023125348705, 17.1379783795559 ], [ 80.87809516298806, 17.137037182274916 ], [ 80.878172437545402, 17.136395416143934 ], [ 80.878299744495479, 17.135497335339583 ], [ 80.878250394029394, 17.135139905952304 ], [ 80.8780759373103, 17.13490513226969 ], [ 80.877557404817082, 17.134300155916144 ], [ 80.876897281403686, 17.133360825938798 ], [ 80.876213637253528, 17.132462176506149 ], [ 80.875605457908208, 17.131649367163778 ], [ 80.875143393976785, 17.131030690374896 ], [ 80.874831963896384, 17.130511222886287 ], [ 80.8746241264068, 17.130027741209041 ], [ 80.87440277439147, 17.129831494075255 ], [ 80.874176570525592, 17.129576435850996 ], [ 80.873893558396844, 17.12913824147525 ], [ 80.873638900581497, 17.128772444687719 ], [ 80.873229181511064, 17.128461195564562 ], [ 80.872946732122642, 17.128271809840253 ], [ 80.872534594732571, 17.127953711324004 ], [ 80.872263701861442, 17.127667073394207 ], [ 80.871971695119896, 17.127441504065064 ], [ 80.871590407335475, 17.127243186537175 ], [ 80.871211635083881, 17.127139886690962 ], [ 80.870847089068093, 17.127117849900774 ], [ 80.870508526519714, 17.127095889358007 ], [ 80.870240424659215, 17.127064723009578 ], [ 80.869939394781568, 17.127033568654404 ], [ 80.869640590286579, 17.126941365737775 ], [ 80.869299152237957, 17.126686527819381 ], [ 80.868855918979762, 17.126058757049879 ], [ 80.868450847574252, 17.12569768959245 ], [ 80.867966822059614, 17.124627945333778 ], [ 80.866729999445809, 17.124689999811295 ], [ 80.85799000013003, 17.126539999874375 ], [ 80.851819999474955, 17.127839998439761 ], [ 80.847560000481437, 17.128229999467411 ], [ 80.843660000091916, 17.129349999219905 ], [ 80.841640000434438, 17.130849998701365 ], [ 80.841340000694217, 17.131069999968616 ], [ 80.837820000097437, 17.13347999996228 ], [ 80.83328000036704, 17.135629999978708 ], [ 80.83263000037303, 17.136379999734377 ], [ 80.832440000456586, 17.13902000031797 ], [ 80.832290000731419, 17.140510001206142 ], [ 80.830798000359778, 17.142828000529914 ], [ 80.830369999680741, 17.143779998451997 ], [ 80.825829999627615, 17.14599999946423 ], [ 80.819669999923832, 17.150670001643554 ], [ 80.819159999246537, 17.1508899996666 ], [ 80.813779999844627, 17.153169999633551 ], [ 80.807659999598457, 17.154999999338294 ], [ 80.801560000021922, 17.157170001265154 ], [ 80.8008599994223, 17.15775000134629 ], [ 80.799380000359477, 17.1589499999621 ], [ 80.79802999979448, 17.161270000250443 ], [ 80.797420000089474, 17.165069998587022 ], [ 80.794670000302119, 17.170100000415459 ], [ 80.794290000033953, 17.170259998829742 ], [ 80.792990000169738, 17.170799999534381 ], [ 80.788860000436657, 17.171189998541326 ], [ 80.782079999333305, 17.17350000050617 ], [ 80.772609999617771, 17.176239998323094 ], [ 80.766940000746985, 17.178680000405997 ], [ 80.765220000301596, 17.179420000560686 ], [ 80.765719999656284, 17.187880001271068 ], [ 80.765959999312685, 17.189800000957749 ], [ 80.766989999958241, 17.192710000181037 ], [ 80.766999999588904, 17.195200000061796 ], [ 80.76701000052195, 17.198560000762292 ], [ 80.767010000407623, 17.199820000601349 ], [ 80.766080000101212, 17.203740001034554 ], [ 80.766929999841551, 17.209509998719668 ], [ 80.768429999209488, 17.214039999504568 ], [ 80.771740000279095, 17.219960000613405 ], [ 80.772599999474224, 17.222690001109836 ], [ 80.773060000196892, 17.225890000576637 ], [ 80.772420000758473, 17.232890000872477 ], [ 80.772327999926887, 17.233870001196795 ], [ 80.771279999778713, 17.238750000208569 ], [ 80.771390000136122, 17.240330000952156 ], [ 80.771650000070139, 17.241140000807125 ], [ 80.77208000003013, 17.241720000125301 ], [ 80.777379999849416, 17.24597000083455 ], [ 80.782869999778242, 17.253960000324128 ], [ 80.784550000482994, 17.256740001467882 ], [ 80.784700000230274, 17.257729999324738 ], [ 80.784799999426298, 17.264090001717609 ], [ 80.787229999848662, 17.268380000725859 ], [ 80.788040000009005, 17.271520000631572 ], [ 80.788190000340563, 17.279340000826029 ], [ 80.79007999958624, 17.289999999283012 ], [ 80.790119999885107, 17.291160000687455 ], [ 80.790140000165252, 17.291510000583653 ], [ 80.789890000586183, 17.291989999547102 ], [ 80.789540000127246, 17.292690000008772 ], [ 80.787249999674017, 17.29435000122643 ], [ 80.786409999475623, 17.295410000207379 ], [ 80.785800000950587, 17.296700000725941 ], [ 80.785549999141011, 17.297750001093821 ], [ 80.785580000786496, 17.298629999626204 ], [ 80.785639999669712, 17.30060999928499 ], [ 80.785889999980824, 17.302420000785723 ], [ 80.789419999698822, 17.309840001447213 ], [ 80.795850000226238, 17.324470000385439 ], [ 80.797120000189395, 17.325740000723432 ], [ 80.798129999326491, 17.326489998543234 ], [ 80.799029999802855, 17.326770000576399 ], [ 80.80056000002287, 17.327040000457902 ], [ 80.801850000839664, 17.327030000534872 ], [ 80.802889999751741, 17.326960000633303 ], [ 80.804409999829886, 17.326770001878508 ], [ 80.807710000606846, 17.326020000459398 ], [ 80.816910000316156, 17.32394000086239 ], [ 80.831769999655137, 17.323480000162153 ], [ 80.839399999254155, 17.322160000879403 ], [ 80.843029999834641, 17.321999999863149 ], [ 80.843669999663149, 17.322170001422794 ], [ 80.844016000212434, 17.322556000617972 ], [ 80.844119999369184, 17.326659998747424 ], [ 80.844449999619457, 17.327760001168713 ], [ 80.845059999979824, 17.32852000061062 ], [ 80.848749999791892, 17.331920000902766 ], [ 80.85338000027015, 17.335279999546508 ], [ 80.855580000001922, 17.336129999872345 ], [ 80.857510000362467, 17.336109999367345 ], [ 80.864079999827482, 17.336440000079428 ], [ 80.867378494070834, 17.336275013552669 ] ] ] } }
]
}
