{
  "type": "FeatureCollection",
  "features": [
    {
      "type": "Feature",
      "properties": {
        "State": "Haryana",
        "District": "Ambala",
        "note": "approximate bbox, not surveyed boundary"
      },
      "geometry": {
        "type": "Polygon",
        "coordinates": [
          [
            [
              76.65,
              29.95
            ],
            [
              77.35,
              29.95
            ],
            [
              77.35,
              30.5
            ],
            [
              76.65,
              30.5
            ],
            [
              76.65,
              29.95
            ]
          ]
        ]
      }
    }
  ]
}